STARLINK-31809          
1 59743U 24090P   26068.31460966 -.00000889  00000+0 -22778-4 0  9996
2 59743  43.0002 178.6175 0001079 298.3904  61.6839 15.27574983103464
BLUEBON                 
1 62688U 25009CH  26068.70316231  .00010452  00000+0  37313-3 0  9992
2 62688  97.4017 152.2033 0001193  43.3900 316.7434 15.29047253 63767
